*******************************************************************************
JPL/HORIZONS                 92 Undina (A867 NA)           2020-Jun-20 08:08:13
Rec #:      92 (+COV) Soln.date: 2020-May-20_00:58:15   # obs: 2446 (1871-2020)
 
IAU76/J2000 helio. ecliptic osc. elements (au, days, deg., period=Julian yrs):
 
  EPOCH=  2455149.5 ! 2009-Nov-14.00 (TDB)         Residual RMS= .33745
   EC= .1016434024588462   QR= 2.863766645882571   TP= 2455501.8623286397
   OM= 101.8266463310978   W=  242.1593832874235   IN= 9.922458969961117
   A= 3.187783841873974    MA= 298.9816797592927   ADIST= 3.511801037865377
   PER= 5.69169            N= .173169245           ANGMOM= .03055419
   DAN= 3.31207            DDN= 3.01188            L= 343.6279361
   B= -8.7642837           MOID= 1.87123001        TP= 2010-Nov-01.3623286397
 
Asteroid physical parameters (km, seconds, rotational period in hours):
   GM= n.a.                RAD= 63.21              ROTPER= 15.941
   H= 6.7                  G= .150                 B-V= .725
                           ALBEDO= .2509           STYP= Xc
 
ASTEROID comments: 
1: soln ref.= JPL#98, OCC=0
2: source=ORB
*******************************************************************************
 
 
*******************************************************************************
Ephemeris / WWW_USER Sat Jun 20 08:08:13 2020 Pasadena, USA      / Horizons
*******************************************************************************
Target body name: 92 Undina (A867 NA)             {source: JPL#98}
Center body name: Solar System Barycenter (0)     {source: DE431}
Center-site name: BODY CENTER
*******************************************************************************
Start time      : A.D. 1969-Jun-28 00:00:00.0000 TDB
Stop  time      : A.D. 2071-May-04 00:00:00.0000 TDB
Step-size       : 7200 minutes
*******************************************************************************
Center geodetic : 0.00000000,0.00000000,0.0000000 {E-lon(deg),Lat(deg),Alt(km)}
Center cylindric: 0.00000000,0.00000000,0.0000000 {E-lon(deg),Dxy(km),Dz(km)}
Center radii    : (undefined)                                                  
Small perturbers: Yes                             {source: SB431-N16}
Output units    : AU-D
Output type     : GEOMETRIC cartesian states
Output format   : 2 (position and velocity)
Reference frame : Ecliptic of J2000.0
*******************************************************************************
Initial IAU76/J2000 heliocentric ecliptic osculating elements (au, days, deg.):
  EPOCH=  2455149.5 ! 2009-Nov-14.00 (TDB)         Residual RMS= .33745        
   EC= .1016434024588462   QR= 2.863766645882571   TP= 2455501.8623286397      
   OM= 101.8266463310978   W=  242.1593832874235   IN= 9.922458969961117       
  Equivalent ICRF heliocentric equatorial cartesian coordinates (au, au/d):
   X= 1.236555932077241E-01  Y=-2.837162090543313E+00  Z=-1.133793600686157E+00
  VX= 9.802894527419987E-03 VY= 1.863440849150616E-03 VZ=-1.071645356756139E-03
Asteroid physical parameters (km, seconds, rotational period in hours):        
   GM= n.a.                RAD= 63.21              ROTPER= 15.941              
   H= 6.7                  G= .150                 B-V= .725                   
                           ALBEDO= .2509           STYP= Xc                    
*******************************************************************************
            JDTDB,            Calendar Date (TDB),        delta-T,                      X,                      Y,                      Z,                     VX,                     VY,                     VZ,
******************************************************************************************************************************************************************************************************************
$$SOE
2476660.500000000, A.D. 2068-Oct-06 00:00:00.0000,      69.182331,  1.753818052716051E+00,  2.586964721595542E+00, -3.868806137539254E-01, -7.434088009947410E-03,  6.242870269830698E-03,  1.070026078225924E-03,
2476665.500000000, A.D. 2068-Oct-11 00:00:00.0000,      69.182336,  1.716441286725019E+00,  2.617871586520539E+00, -3.814848601086772E-01, -7.516267590577710E-03,  6.119715483936547E-03,  1.088220405447755E-03,
2476670.500000000, A.D. 2068-Oct-16 00:00:00.0000,      69.182353,  1.678658887522632E+00,  2.648160306585820E+00, -3.759989609848893E-01, -7.596340767327248E-03,  5.995618777759394E-03,  1.106083965804000E-03,
2476675.500000000, A.D. 2068-Oct-21 00:00:00.0000,      69.182385,  1.640481394451961E+00,  2.677826268693928E+00, -3.704245746652062E-01, -7.674304726866392E-03,  5.870618697895449E-03,  1.123615001719952E-03,
2476680.500000000, A.D. 2068-Oct-26 00:00:00.0000,      69.182429,  1.601919359196126E+00,  2.706865051647325E+00, -3.647633678963275E-01, -7.750157343409205E-03,  5.744753456072929E-03,  1.140811884657268E-03,
2476685.500000000, A.D. 2068-Oct-31 00:00:00.0000,      69.182485,  1.562983342386987E+00,  2.735272424449618E+00, -3.590170152511374E-01, -7.823897160167683E-03,  5.618060919426663E-03,  1.157673112201301E-03,
2476690.500000000, A.D. 2068-Nov-05 00:00:00.0000,      69.182551,  1.523683910306154E+00,  2.763044344559041E+00, -3.531871985052225E-01, -7.895523370985133E-03,  5.490578601156321E-03,  1.174197305216512E-03,
2476695.500000000, A.D. 2068-Nov-10 00:00:00.0000,      69.182627,  1.484031631677321E+00,  2.790176956096518E+00, -3.472756060274806E-01, -7.965035802173535E-03,  5.362343651720086E-03,  1.190383205050762E-03,
2476700.500000000, A.D. 2068-Nov-15 00:00:00.0000,      69.182713,  1.444037074548954E+00,  2.816666588011151E+00, -3.412839321846254E-01, -8.032434894528808E-03,  5.233392850605862E-03,  1.206229670771629E-03,
2476705.500000000, A.D. 2068-Nov-20 00:00:00.0000,      69.182811,  1.403710803266463E+00,  2.842509752205981E+00, -3.352138767594414E-01, -8.097721685527363E-03,  5.103762598674904E-03,  1.221735676428655E-03,
2476710.500000000, A.D. 2068-Nov-25 00:00:00.0000,      69.182919,  1.363063375532877E+00,  2.867703141626896E+00, -3.290671443826671E-01, -8.160897791730843E-03,  4.973488911064223E-03,  1.236900308341220E-03,
2476715.500000000, A.D. 2068-Nov-30 00:00:00.0000,      69.183035,  1.322105339556914E+00,  2.892243628317410E+00, -3.228454439783777E-01, -8.221965391432148E-03,  4.842607410648182E-03,  1.251722762408240E-03,
2476720.500000000, A.D. 2068-Dec-05 00:00:00.0000,      69.183157,  1.280847231287169E+00,  2.916128261442203E+00, -3.165504882227769E-01, -8.280927207559033E-03,  4.711153322071591E-03,  1.266202341434698E-03,
2476725.500000000, A.D. 2068-Dec-10 00:00:00.0000,      69.183284,  1.239299571731125E+00,  2.939354265282283E+00, -3.101839930163307E-01, -8.337786490846993E-03,  4.579161466374745E-03,  1.280338452467137E-03,
2476730.500000000, A.D. 2068-Dec-15 00:00:00.0000,      69.183417,  1.197472864357620E+00,  2.961919037204792E+00, -3.037476769692130E-01, -8.392547003280485E-03,  4.446666256229548E-03,  1.294130604132186E-03,
2476735.500000000, A.D. 2068-Dec-20 00:00:00.0000,      69.183556,  1.155377592581466E+00,  2.983820145610578E+00, -2.972432609000660E-01, -8.445213001788377E-03,  4.313701691816846E-03,  1.307578403970789E-03,
2476740.500000000, A.D. 2068-Dec-25 00:00:00.0000,      69.183699,  1.113024217329016E+00,  3.005055327862861E+00, -2.906724673481184E-01, -8.495789222158240E-03,  4.180301357387312E-03,  1.320681555758822E-03,
2476745.500000000, A.D. 2068-Dec-30 00:00:00.0000,      69.183845,  1.070423174683804E+00,  3.025622488200474E+00, -2.840370200987765E-01, -8.544280863072495E-03,  4.046498418541356E-03,  1.333439856793837E-03,
2476750.500000000, A.D. 2069-Jan-04 00:00:00.0000,      69.183991,  1.027584873612007E+00,  3.045519695638988E+00, -2.773386437228623E-01, -8.590693570125714E-03,  3.912325620024147E-03,  1.345853195156496E-03,
2476755.500000000, A.D. 2069-Jan-09 00:00:00.0000,      69.184135,  9.845196937675822E-01,  3.064745181861142E+00, -2.705790631294185E-01, -8.635033420018999E-03,  3.777815283594971E-03,  1.357921547047782E-03,
2476760.500000000, A.D. 2069-Jan-14 00:00:00.0000,      69.184278,  9.412379833750253E-01,  3.083297339096778E+00, -2.637600031314636E-01, -8.677306905359863E-03,  3.642999306066549E-03,  1.369644974260536E-03,
2476765.500000000, A.D. 2069-Jan-19 00:00:00.0000,      69.184421,  8.977500571867680E-01,  3.101174717994991E+00, -2.568831880243196E-01, -8.717520919908182E-03,  3.507909158238387E-03,  1.381023621651300E-03,
2476770.500000000, A.D. 2069-Jan-24 00:00:00.0000,      69.184562,  8.540661945143976E-01,  3.118376025493216E+00, -2.499503411767778E-01, -8.755682743768492E-03,  3.372575884632775E-03,  1.392057714542013E-03,
2476775.500000000, A.D. 2069-Jan-29 00:00:00.0000,      69.184698,  8.101966373339264E-01,  3.134900122685772E+00, -2.429631846352342E-01, -8.791800028625065E-03,  3.237030103492527E-03,  1.402747556145000E-03,
2476780.500000000, A.D. 2069-Feb-03 00:00:00.0000,      69.184827,  7.661515884642185E-01,  3.150746022692780E+00, -2.359234387405242E-01, -8.825880783270934E-03,  3.101302006943195E-03,  1.413093525062031E-03,
2476785.500000000, A.D. 2069-Feb-08 00:00:00.0000,      69.184948,  7.219412098168865E-01,  3.165912888530530E+00, -2.288328217570870E-01, -8.857933359488193E-03,  2.965421361423279E-03,  1.423096072847498E-03,
2476790.500000000, A.D. 2069-Feb-13 00:00:00.0000,      69.185063,  6.775756207159509E-01,  3.180400030984788E+00, -2.216930495141922E-01, -8.887966438260371E-03,  2.829417508438648E-03,  1.432755721621247E-03,
2476795.500000000, A.D. 2069-Feb-18 00:00:00.0000,      69.185171,  6.330648962856484E-01,  3.194206906488708E+00, -2.145058350589877E-01, -8.915989016297544E-03,  2.693319365645565E-03,  1.442073061724628E-03,
